{"type": "FeatureCollection", "features": [ {"type": "Feature", "properties": {"norad_id": 66387, "name": "STARLINK-35661", "group": "last-30-days", "lat": -18.702511888951385, "lon": 134.70942105221386, "alt_km": 450.35017655594675, "timestamp": "2025-12-05T04:52:14.140927+00:00", "meta": {"OBJECT_NAME": "STARLINK-35661", "OBJECT_ID": "2025-257H", "EPOCH": "2025-12-04T18:00:02.000160", "MEAN_MOTION": 15.39536451, "ECCENTRICITY": 8.17e-05, "INCLINATION": 53.1602, "RA_OF_ASC_NODE": 302.1416, "ARG_OF_PERICENTER": 83.1409, "MEAN_ANOMALY": 128.6411, "EPHEMERIS_TYPE": 0, "CLASSIFICATION_TYPE": "U", "NORAD_CAT_ID": 66387, "ELEMENT_SET_NO": 999, "REV_AT_EPOCH": 521, "BSTAR": 0.003432, "MEAN_MOTION_DOT": 0.00139027, "MEAN_MOTION_DDOT": 0}, "tle": {"line1": "1 66387U 25257H   25338.75002315  .00139027  00000+0  34320-2 0  9990", "line2": "2 66387  53.1602 302.1416 0000817  83.1409 128.6411 15.39536451  5210"}}, "geometry": {"type": "Point", "coordinates": [134.70942105221386, -18.702511888951385]}}, {"type": "Feature", "properties": {"norad_id": 66388, "name": "STARLINK-35647", "group": "last-30-days", "lat": -36.23090953972952, "lon": 153.2797373844199, "alt_km": 452.41088168090664, "timestamp": "2025-12-05T04:52:14.140936+00:00", "meta": {"OBJECT_NAME": "STARLINK-35647", "OBJECT_ID": "2025-257J", "EPOCH": "2025-12-04T18:00:02.000160", "MEAN_MOTION": 15.39633477, "ECCENTRICITY": 0.000162, "INCLINATION": 53.1603, "RA_OF_ASC_NODE": 302.0937, "ARG_OF_PERICENTER": 87.9401, "MEAN_ANOMALY": 147.8518, "EPHEMERIS_TYPE": 0, "CLASSIFICATION_TYPE": "U", "NORAD_CAT_ID": 66388, "ELEMENT_SET_NO": 999, "REV_AT_EPOCH": 521, "BSTAR": -0.0017982, "MEAN_MOTION_DOT": -0.00071688, "MEAN_MOTION_DDOT": 0}, "tle": {"line1": "1 66388U 25257J   25338.75002315 -.00071688  00000+0 -17982-2 0  9996", "line2": "2 66388  53.1603 302.0937 0001620  87.9401 147.8518 15.39633477  5213"}}, "geometry": {"type": "Point", "coordinates": [153.2797373844199, -36.23090953972952]}}, {"type": "Feature", "properties": {"norad_id": 66389, "name": "STARLINK-35694", "group": "last-30-days", "lat": -50.355624095494626, "lon": -175.2942856935073, "alt_km": 448.20138825788854, "timestamp": "2025-12-05T04:52:14.140946+00:00", "meta": {"OBJECT_NAME": "STARLINK-35694", "OBJECT_ID": "2025-257K", "EPOCH": "2025-12-04T18:00:02.000160", "MEAN_MOTION": 15.43187963, "ECCENTRICITY": 0.0001334, "INCLINATION": 53.1599, "RA_OF_ASC_NODE": 302.0486, "ARG_OF_PERICENTER": 98.5313, "MEAN_ANOMALY": 159.7056, "EPHEMERIS_TYPE": 0, "CLASSIFICATION_TYPE": "U", "NORAD_CAT_ID": 66389, "ELEMENT_SET_NO": 999, "REV_AT_EPOCH": 521, "BSTAR": -0.050219, "MEAN_MOTION_DOT": -0.02015016, "MEAN_MOTION_DDOT": 0}, "tle": {"line1": "1 66389U 25257K   25338.75002315 -.02015016  00000+0 -50219-1 0  9991", "line2": "2 66389  53.1599 302.0486 0001334  98.5313 159.7056 15.43187963  5217"}}, "geometry": {"type": "Point", "coordinates": [-175.2942856935073, -50.355624095494626]}}, {"type": "Feature", "properties": {"norad_id": 66390, "name": "STARLINK-35665", "group": "last-30-days", "lat": -34.178285674645196, "lon": -90.82396563527949, "alt_km": 422.915897269223, "timestamp": "2025-12-05T04:52:14.140955+00:00", "meta": {"OBJECT_NAME": "STARLINK-35665", "OBJECT_ID": "2025-257L", "EPOCH": "2025-12-04T15:07:48.539424", "MEAN_MOTION": 15.49357903, "ECCENTRICITY": 0.0002131, "INCLINATION": 53.1592, "RA_OF_ASC_NODE": 302.5195, "ARG_OF_PERICENTER": 81.2033, "MEAN_ANOMALY": 278.9217, "EPHEMERIS_TYPE": 0, "CLASSIFICATION_TYPE": "U", "NORAD_CAT_ID": 66390, "ELEMENT_SET_NO": 999, "REV_AT_EPOCH": 522, "BSTAR": 0.0034253, "MEAN_MOTION_DOT": 0.00195224, "MEAN_MOTION_DDOT": 0}, "tle": {"line1": "1 66390U 25257L   25338.63042291  .00195224  00000+0  34253-2 0  9994", "line2": "2 66390  53.1592 302.5195 0002131  81.2033 278.9217 15.49357903  5221"}}, "geometry": {"type": "Point", "coordinates": [-90.82396563527949, -34.178285674645196]}}, {"type": "Feature", "properties": {"norad_id": 66391, "name": "STARLINK-35656", "group": "last-30-days", "lat": -50.04994243455701, "lon": -176.59134554443156, "alt_km": 452.7739045628887, "timestamp": "2025-12-05T04:52:14.140964+00:00", "meta": {"OBJECT_NAME": "STARLINK-35656", "OBJECT_ID": "2025-257M", "EPOCH": "2025-12-04T18:00:02.000160", "MEAN_MOTION": 15.39574833, "ECCENTRICITY": 0.0001164, "INCLINATION": 53.1603, "RA_OF_ASC_NODE": 302.0283, "ARG_OF_PERICENTER": 106.488, "MEAN_ANOMALY": 155.1336, "EPHEMERIS_TYPE": 0, "CLASSIFICATION_TYPE": "U", "NORAD_CAT_ID": 66391, "ELEMENT_SET_NO": 999, "REV_AT_EPOCH": 531, "BSTAR": -7.8964e-05, "MEAN_MOTION_DOT": -3.551e-05, "MEAN_MOTION_DDOT": 0}, "tle": {"line1": "1 66391U 25257M   25338.75002315 -.00003551  00000+0 -78964-4 0  9993", "line2": "2 66391  53.1603 302.0283 0001164 106.4880 155.1336 15.39574833  5313"}}, "geometry": {"type": "Point", "coordinates": [-176.59134554443156, -50.04994243455701]}}, {"type": "Feature", "properties": {"norad_id": 66392, "name": "STARLINK-35671", "group": "last-30-days", "lat": -37.44502785878176, "lon": 154.99310302927267, "alt_km": 452.3989638173971, "timestamp": "2025-12-05T04:52:14.140973+00:00", "meta": {"OBJECT_NAME": "STARLINK-35671", "OBJECT_ID": "2025-257N", "EPOCH": "2025-12-04T18:00:02.000160", "MEAN_MOTION": 15.39580561, "ECCENTRICITY": 0.0001903, "INCLINATION": 53.1604, "RA_OF_ASC_NODE": 302.0892, "ARG_OF_PERICENTER": 96.4539, "MEAN_ANOMALY": 141.1844, "EPHEMERIS_TYPE": 0, "CLASSIFICATION_TYPE": "U", "NORAD_CAT_ID": 66392, "ELEMENT_SET_NO": 999, "REV_AT_EPOCH": 521, "BSTAR": 0.00065799, "MEAN_MOTION_DOT": 0.00025975, "MEAN_MOTION_DDOT": 0}, "tle": {"line1": "1 66392U 25257N   25338.75002315  .00025975  00000+0  65799-3 0  9997", "line2": "2 66392  53.1604 302.0892 0001903  96.4539 141.1844 15.39580561  5214"}}, "geometry": {"type": "Point", "coordinates": [154.99310302927267, -37.44502785878176]}}, {"type": "Feature", "properties": {"norad_id": 66393, "name": "STARLINK-35652", "group": "last-30-days", "lat": -53.117854310075934, "lon": -147.8229538944996, "alt_km": 439.8078256158615, "timestamp": "2025-12-05T04:52:14.140983+00:00", "meta": {"OBJECT_NAME": "STARLINK-35652", "OBJECT_ID": "2025-257P", "EPOCH": "2025-12-04T18:00:02.000160", "MEAN_MOTION": 15.46041181, "ECCENTRICITY": 0.0001164, "INCLINATION": 53.1597, "RA_OF_ASC_NODE": 302.0234, "ARG_OF_PERICENTER": 111.5412, "MEAN_ANOMALY": 159.2274, "EPHEMERIS_TYPE": 0, "CLASSIFICATION_TYPE": "U", "NORAD_CAT_ID": 66393, "ELEMENT_SET_NO": 999, "REV_AT_EPOCH": 521, "BSTAR": -0.045841, "MEAN_MOTION_DOT": -0.02027223, "MEAN_MOTION_DDOT": 0}, "tle": {"line1": "1 66393U 25257P   25338.75002315 -.02027223  00000+0 -45841-1 0  9994", "line2": "2 66393  53.1597 302.0234 0001164 111.5412 159.2274 15.46041181  5219"}}, "geometry": {"type": "Point", "coordinates": [-147.8229538944996, -53.117854310075934]}}, {"type": "Feature", "properties": {"norad_id": 66394, "name": "STARLINK-35672", "group": "last-30-days", "lat": -52.94545372359614, "lon": -143.3290100672076, "alt_km": 440.7048697749715, "timestamp": "2025-12-05T04:52:14.140994+00:00", "meta": {"OBJECT_NAME": "STARLINK-35672", "OBJECT_ID": "2025-257Q", "EPOCH": "2025-12-04T18:00:02.000160", "MEAN_MOTION": 15.45775147, "ECCENTRICITY": 0.0001384, "INCLINATION": 53.1597, "RA_OF_ASC_NODE": 302.016, "ARG_OF_PERICENTER": 108.9213, "MEAN_ANOMALY": 164.9843, "EPHEMERIS_TYPE": 0, "CLASSIFICATION_TYPE": "U", "NORAD_CAT_ID": 66394, "ELEMENT_SET_NO": 999, "REV_AT_EPOCH": 521, "BSTAR": -0.045845, "MEAN_MOTION_DOT": -0.02010902, "MEAN_MOTION_DDOT": 0}, "tle": {"line1": "1 66394U 25257Q   25338.75002315 -.02010902  00000+0 -45845-1 0  9995", "line2": "2 66394  53.1597 302.0160 0001384 108.9213 164.9843 15.45775147  5211"}}, "geometry": {"type": "Point", "coordinates": [-143.3290100672076, -52.94545372359614]}}, {"type": "Feature", "properties": {"norad_id": 66395, "name": "STARLINK-35681", "group": "last-30-days", "lat": -49.32345592075707, "lon": -120.89844401171163, "alt_km": 423.9016609735236, "timestamp": "2025-12-05T04:52:14.141005+00:00", "meta": {"OBJECT_NAME": "STARLINK-35681", "OBJECT_ID": "2025-257R", "EPOCH": "2025-12-04T09:03:09.457056", "MEAN_MOTION": 15.49346125, "ECCENTRICITY": 0.0001279, "INCLINATION": 53.1595, "RA_OF_ASC_NODE": 303.7866, "ARG_OF_PERICENTER": 91.9394, "MEAN_ANOMALY": 268.1761, "EPHEMERIS_TYPE": 0, "CLASSIFICATION_TYPE": "U", "NORAD_CAT_ID": 66395, "ELEMENT_SET_NO": 999, "REV_AT_EPOCH": 501, "BSTAR": 0.001087, "MEAN_MOTION_DOT": 0.00060558, "MEAN_MOTION_DDOT": 0}, "tle": {"line1": "1 66395U 25257R   25338.37719279  .00060558  00000+0  10870-2 0  9997", "line2": "2 66395  53.1595 303.7866 0001279  91.9394 268.1761 15.49346125  5013"}}, "geometry": {"type": "Point", "coordinates": [-120.89844401171163, -49.32345592075707]}}, {"type": "Feature", "properties": {"norad_id": 66396, "name": "STARLINK-35669", "group": "last-30-days", "lat": -48.45738804742197, "lon": -117.96540908956794, "alt_km": 423.5887525877142, "timestamp": "2025-12-05T04:52:14.141015+00:00", "meta": {"OBJECT_NAME": "STARLINK-35669", "OBJECT_ID": "2025-257S", "EPOCH": "2025-12-04T09:02:39.769152", "MEAN_MOTION": 15.49365522, "ECCENTRICITY": 0.0001327, "INCLINATION": 53.1591, "RA_OF_ASC_NODE": 303.7835, "ARG_OF_PERICENTER": 104.0612, "MEAN_ANOMALY": 256.0545, "EPHEMERIS_TYPE": 0, "CLASSIFICATION_TYPE": "U", "NORAD_CAT_ID": 66396, "ELEMENT_SET_NO": 999, "REV_AT_EPOCH": 508, "BSTAR": 0.0021205, "MEAN_MOTION_DOT": 0.00119543, "MEAN_MOTION_DDOT": 0}, "tle": {"line1": "1 66396U 25257S   25338.37684918  .00119543  00000+0  21205-2 0  9992", "line2": "2 66396  53.1591 303.7835 0001327 104.0612 256.0545 15.49365522  5084"}}, "geometry": {"type": "Point", "coordinates": [-117.96540908956794, -48.45738804742197]}}]}